{"type": "FeatureCollection", "features": [{"type": "Feature", "properties": {"類型": "路線", "名稱": "快捷9號", "方向": "去程", "SubRouteUID": "HSQ080501"}, "geometry": {"type": "LineString", "coordinates": [[121.03171, 24.82417], [121.03141, 24.8238], [121.03116, 24.82354], [121.03116, 24.82354], [121.03137, 24.82343], [121.03152, 24.82337], [121.03177, 24.82325], [121.03289, 24.82275], [121.03298, 24.82271], [121.03298, 24.82271], [121.03275, 24.82234], [121.03265, 24.82218], [121.03233, 24.82174], [121.03226, 24.82167], [121.03215, 24.82155], [121.03155, 24.82087], [121.0315, 24.82081], [121.03141, 24.82071], [121.03141, 24.82071], [121.03137, 24.82067], [121.03135, 24.82064], [121.03098, 24.82026], [121.0309, 24.82018], [121.03074, 24.82003], [121.03061, 24.81991], [121.03021, 24.81951], [121.03053, 24.81926], [121.03053, 24.81926], [121.03107, 24.81885], [121.03123, 24.8187], [121.03143, 24.81853], [121.03152, 24.81843], [121.03156, 24.81839], [121.03163, 24.81829], [121.03177, 24.81811], [121.03184, 24.81801], [121.03186, 24.81789], [121.03189, 24.81784], [121.03205, 24.8176], [121.03214, 24.81747], [121.03222, 24.81737], [121.0323, 24.81726], [121.03241, 24.81713], [121.03254, 24.817], [121.03266, 24.81689], [121.0328, 24.81676], [121.03299, 24.81659], [121.03445, 24.81541], [121.03465, 24.81524], [121.03487, 24.81509], [121.03496, 24.81503], [121.03509, 24.81496], [121.03526, 24.81489], [121.03538, 24.81484], [121.03541, 24.81483], [121.03541, 24.81483], [121.03659, 24.81442], [121.03668, 24.81439], [121.03699, 24.81428], [121.03717, 24.81422], [121.03719, 24.81422], [121.03849, 24.81374], [121.03838, 24.81352], [121.03822, 24.81327], [121.03797, 24.81283], [121.03786, 24.81263], [121.03786, 24.81263], [121.03752, 24.81205], [121.03738, 24.81178], [121.03733, 24.81167], [121.03722, 24.8115], [121.03732, 24.81146], [121.03803, 24.81116], [121.03872, 24.81088], [121.03902, 24.81077], [121.03975, 24.81052], [121.03986, 24.81049], [121.03993, 24.81047], [121.0405, 24.81029], [121.04151, 24.81005], [121.04161, 24.81004], [121.04173, 24.81001], [121.04171, 24.80991], [121.04168, 24.8098], [121.04165, 24.80968], [121.04143, 24.80881], [121.04141, 24.80873], [121.04136, 24.80873], [121.04134, 24.80872], [121.04132, 24.8087], [121.0413, 24.80868], [121.04127, 24.80865], [121.04123, 24.80861], [121.04117, 24.80855], [121.04061, 24.80794], [121.0405, 24.80781], [121.04049, 24.80779], [121.04048, 24.80778], [121.04048, 24.80777], [121.04047, 24.80776], [121.04039, 24.80765], [121.04036, 24.8075], [121.04037, 24.80746], [121.0404, 24.80742], [121.04058, 24.80727], [121.04058, 24.80727], [121.04095, 24.80695], [121.04066, 24.80597], [121.04066, 24.80596], [121.04065, 24.80592], [121.04032, 24.80598], [121.04024, 24.80599], [121.04004, 24.80603], [121.03992, 24.80606], [121.03989, 24.80607], [121.0395, 24.80618], [121.03947, 24.80618], [121.03931, 24.80621], [121.0391, 24.80626], [121.03874, 24.80635], [121.03864, 24.80637], [121.03853, 24.80641], [121.03802, 24.80656], [121.03718, 24.80681], [121.03708, 24.80685], [121.03614, 24.80721], [121.03588, 24.80731], [121.03529, 24.80755], [121.03512, 24.80763], [121.03476, 24.80777], [121.03476, 24.80777], [121.03403, 24.80805], [121.03358, 24.80818], [121.03322, 24.8083], [121.03282, 24.80844], [121.03273, 24.80848], [121.03262, 24.80853], [121.03204, 24.80882], [121.03204, 24.80882], [121.03084, 24.80941], [121.03036, 24.80963], [121.02917, 24.81024], [121.02908, 24.81029], [121.02751, 24.81105], [121.02743, 24.8111], [121.02734, 24.81114], [121.02696, 24.81135], [121.02604, 24.81184], [121.0248, 24.81252], [121.0248, 24.81252], [121.02463, 24.81261], [121.024, 24.8129], [121.02372, 24.81304], [121.02332, 24.81326], [121.02322, 24.81333], [121.02254, 24.81365], [121.02137, 24.81421], [121.02137, 24.81421], [121.02125, 24.81426], [121.02056, 24.81462], [121.02039, 24.81471], [121.0201, 24.81486], [121.01953, 24.81516], [121.01969, 24.81549], [121.01969, 24.81549], [121.01977, 24.81564], [121.01987, 24.81584], [121.02011, 24.81633], [121.02035, 24.81684], [121.02044, 24.81701], [121.02052, 24.81717], [121.02068, 24.81749], [121.02099, 24.81814], [121.02123, 24.81865], [121.02142, 24.81904], [121.02145, 24.81914], [121.02136, 24.81916], [121.02122, 24.81919], [121.02109, 24.81922], [121.02089, 24.81926], [121.0208, 24.81928], [121.02063, 24.81929], [121.02058, 24.8193], [121.02044, 24.81931], [121.02037, 24.81932], [121.02008, 24.81935], [121.0197, 24.81937], [121.01939, 24.8194], [121.01934, 24.8194], [121.01904, 24.81943], [121.01878, 24.81945], [121.01841, 24.81952], [121.01829, 24.81956], [121.01829, 24.81956], [121.01803, 24.81963], [121.01769, 24.81975], [121.01717, 24.81993], [121.01672, 24.82011], [121.01648, 24.8202], [121.01578, 24.82049], [121.01569, 24.82048], [121.01562, 24.8205], [121.0153, 24.82062], [121.01511, 24.82069], [121.01493, 24.82076], [121.01483, 24.82086], [121.01415, 24.82112], [121.0139, 24.82122], [121.0139, 24.82122], [121.01341, 24.82142], [121.01331, 24.82146], [121.01223, 24.82187], [121.0118, 24.82205], [121.01104, 24.82246], [121.01049, 24.82276], [121.01068, 24.82305], [121.01075, 24.82317], [121.01105, 24.82369], [121.01138, 24.82424], [121.01142, 24.82429], [121.01142, 24.82429], [121.01186, 24.82509], [121.01195, 24.82525], [121.01213, 24.82557], [121.01223, 24.82575], [121.01231, 24.82587], [121.01188, 24.82609], [121.01156, 24.82621], [121.0115, 24.82624], [121.01058, 24.82668], [121.0101, 24.82695], [121.00977, 24.8271], [121.00941, 24.82727], [121.00914, 24.8274], [121.00914, 24.8274], [121.00891, 24.82752], [121.00887, 24.82754], [121.00843, 24.82778], [121.00787, 24.8281], [121.00708, 24.82861], [121.0069, 24.82875], [121.00668, 24.82892], [121.00659, 24.82879], [121.00648, 24.8286], [121.00631, 24.82828], [121.00603, 24.82785], [121.00579, 24.82738], [121.00559, 24.827], [121.00549, 24.82681], [121.00549, 24.82681], [121.0054, 24.82665], [121.00515, 24.82617], [121.00506, 24.82611], [121.00487, 24.82572], [121.00473, 24.82543], [121.00472, 24.8254], [121.0047, 24.82538], [121.00469, 24.82536], [121.00468, 24.82535], [121.00466, 24.82534], [121.00465, 24.82533], [121.00467, 24.82529], [121.00466, 24.82525], [121.00465, 24.82521], [121.00463, 24.82516], [121.0046, 24.8251], [121.00457, 24.82501], [121.00451, 24.82492], [121.00445, 24.82481], [121.00436, 24.82466], [121.00433, 24.82462], [121.00391, 24.82401], [121.00384, 24.82391], [121.00355, 24.82407], [121.00296, 24.82438], [121.00264, 24.82454], [121.00229, 24.82472], [121.00222, 24.82476], [121.00215, 24.82479], [121.00202, 24.82486], [121.00191, 24.82492], [121.00187, 24.82495], [121.00187, 24.82495], [121.00146, 24.82517], [121.00144, 24.82518], [121.00131, 24.82525], [121.00127, 24.82528], [121.00122, 24.8253], [121.00112, 24.82535], [121.00103, 24.8254], [121.00092, 24.82545], [121.00086, 24.82535], [121.00078, 24.82518], [121.00049, 24.82456], [121.00047, 24.82452], [121.00035, 24.8243], [120.99988, 24.82451], [120.99926, 24.82478], [120.99911, 24.82485], [120.99899, 24.82491], [120.99881, 24.82499], [120.99881, 24.82499], [120.99845, 24.82515], [120.99827, 24.82523], [120.99823, 24.82526], [120.99777, 24.82547], [120.99742, 24.82563], [120.99727, 24.82567], [120.99723, 24.82557], [120.9972, 24.82546], [120.99718, 24.82537], [120.99717, 24.82531], [120.99716, 24.82529], [120.99713, 24.82512], [120.99711, 24.82507], [120.9971, 24.82501], [120.99707, 24.8249], [120.99688, 24.82417], [120.99683, 24.82402], [120.9965, 24.823], [120.99608, 24.82156], [120.99605, 24.82145], [120.99602, 24.82134], [120.99592, 24.82101], [120.9958, 24.82056], [120.99573, 24.8203], [120.99565, 24.8201], [120.9956, 24.81996], [120.9956, 24.81995], [120.99557, 24.8199], [120.99554, 24.81979], [120.99543, 24.81943], [120.9954, 24.81928], [120.99531, 24.81902], [120.99513, 24.81868], [120.99438, 24.81742], [120.99406, 24.81692], [120.99373, 24.81645], [120.99367, 24.81638], [120.99355, 24.81624], [120.99352, 24.8162], [120.99348, 24.81618], [120.9934, 24.81602], [120.99305, 24.81548], [120.99299, 24.81539], [120.99293, 24.81532], [120.99284, 24.81522], [120.99262, 24.81502], [120.99223, 24.81474], [120.99208, 24.81462], [120.99177, 24.8144], [120.9914, 24.81416], [120.99122, 24.81402], [120.99107, 24.81389], [120.99104, 24.81387], [120.99097, 24.81382], [120.99065, 24.81362], [120.99043, 24.81346], [120.99028, 24.81336], [120.99018, 24.81328], [120.99002, 24.81317], [120.98967, 24.81293], [120.98955, 24.81284], [120.98922, 24.81262], [120.98911, 24.81254], [120.98877, 24.8123], [120.98832, 24.81198], [120.98809, 24.81181], [120.98786, 24.81166], [120.98752, 24.81143], [120.98737, 24.81134], [120.98702, 24.81118], [120.98684, 24.81111], [120.9866, 24.81103], [120.98645, 24.81099], [120.98616, 24.8109], [120.98606, 24.81088], [120.98573, 24.81078], [120.98548, 24.8107], [120.98516, 24.81058], [120.98498, 24.8105], [120.98482, 24.8104], [120.98467, 24.8103], [120.98458, 24.81025], [120.98442, 24.81015], [120.9836, 24.80964], [120.98345, 24.80955], [120.98311, 24.80932], [120.98276, 24.8091], [120.98276, 24.8091], [120.98271, 24.80907], [120.98253, 24.80896], [120.98164, 24.8084], [120.98152, 24.80833], [120.98079, 24.80786], [120.98053, 24.80769], [120.97961, 24.80712], [120.97946, 24.80704], [120.97845, 24.80641], [120.97834, 24.80635], [120.97823, 24.80629], [120.97806, 24.80618], [120.97801, 24.80614], [120.97706, 24.80554], [120.97627, 24.80505], [120.97627, 24.80505], [120.97618, 24.80499], [120.97523, 24.80439], [120.97506, 24.80426], [120.97485, 24.80411], [120.97483, 24.80409], [120.97482, 24.80408], [120.97481, 24.80407], [120.9748, 24.80406], [120.97477, 24.80402], [120.97458, 24.80389], [120.97389, 24.80345], [120.97349, 24.80319], [120.97271, 24.8027], [120.97271, 24.8027], [120.97188, 24.80217], [120.97173, 24.80208], [120.97173, 24.80208], [120.97157, 24.80232], [120.97157, 24.80232], [120.97167, 24.8026], [120.97176, 24.8029], [120.97193, 24.80345], [120.97214, 24.80416], [120.97224, 24.80462], [120.97229, 24.80478], [120.97243, 24.80486], [120.9729, 24.80515], [120.97377, 24.80573], [120.97377, 24.80573], [120.97381, 24.80568], [120.97385, 24.80562], [120.97385, 24.80562], [120.97396, 24.80547], [120.97406, 24.80532], [120.9747, 24.80441], [120.97485, 24.8042], [120.97497, 24.80406], [120.97504, 24.80398], [120.97515, 24.80383], [120.97527, 24.80367], [120.97551, 24.80337], [120.97557, 24.80329], [120.97562, 24.80322], [120.97564, 24.8032], [120.97571, 24.8031], [120.97575, 24.80305], [120.97592, 24.80282], [120.97598, 24.80273], [120.97604, 24.80265], [120.97616, 24.8025], [120.97643, 24.80215], [120.97656, 24.80198], [120.97661, 24.80192], [120.97661, 24.80192], [120.97676, 24.8017], [120.97697, 24.80142], [120.97697, 24.80142], [120.97658, 24.80119], [120.97591, 24.80078], [120.97577, 24.80068], [120.97577, 24.80068], [120.97566, 24.8005], [120.97556, 24.80028], [120.9756, 24.80013], [120.97562, 24.80006], [120.97565, 24.79997], [120.97573, 24.79986], [120.97582, 24.79977], [120.97606, 24.79964], [120.97648, 24.79961], [120.97699, 24.79956], [120.97708, 24.79953], [120.97708, 24.79953], [120.97718, 24.79946], [120.97725, 24.79942], [120.97729, 24.79938], [120.97746, 24.79915], [120.97782, 24.79871], [120.97782, 24.79871], [120.97792, 24.79859], [120.97816, 24.79831], [120.97822, 24.79824], [120.97853, 24.79787], [120.97876, 24.79759], [120.979, 24.79729], [120.9792, 24.79705], [120.97946, 24.79674], [120.9797, 24.79645], [120.9799, 24.79618], [120.98019, 24.79582], [120.98029, 24.79571], [120.98054, 24.79543], [120.98054, 24.79543], [120.98117, 24.79566], [120.98117, 24.79566], [120.98129, 24.7957], [120.98189, 24.79593], [120.98345, 24.7965], [120.98433, 24.79681], [120.98451, 24.79688], [120.98451, 24.79688], [120.98532, 24.79716], [120.98541, 24.79721], [120.98547, 24.79728], [120.98561, 24.79749], [120.98511, 24.7977], [120.9849, 24.7978], [120.98456, 24.79795], [120.98444, 24.798], [120.98439, 24.79803], [120.98352, 24.79839], [120.98341, 24.79844]]}}, {"type": "Feature", "properties": {"類型": "路線", "名稱": "快捷9號", "方向": "返程", "SubRouteUID": "HSQ080502"}, "geometry": {"type": "LineString", "coordinates": [[120.98342, 24.79844], [120.98352, 24.79839], [120.98439, 24.79803], [120.98444, 24.798], [120.98456, 24.79795], [120.9849, 24.7978], [120.98511, 24.7977], [120.98561, 24.79749], [120.98547, 24.79728], [120.98541, 24.79721], [120.98532, 24.79716], [120.98451, 24.79688], [120.98433, 24.79681], [120.98412, 24.79674], [120.98412, 24.79674], [120.98345, 24.7965], [120.98189, 24.79593], [120.98129, 24.7957], [120.98102, 24.79561], [120.98102, 24.79561], [120.98054, 24.79543], [120.98054, 24.79543], [120.98029, 24.79571], [120.98019, 24.79582], [120.9799, 24.79618], [120.9797, 24.79645], [120.97946, 24.79674], [120.9792, 24.79705], [120.979, 24.79729], [120.97876, 24.79759], [120.97853, 24.79787], [120.97822, 24.79824], [120.97816, 24.79831], [120.97792, 24.79859], [120.97792, 24.79859], [120.97746, 24.79915], [120.97729, 24.79938], [120.97725, 24.79942], [120.97725, 24.79942], [120.97724, 24.79949], [120.97718, 24.79957], [120.97714, 24.79961], [120.97713, 24.79961], [120.97701, 24.79965], [120.97654, 24.79969], [120.97627, 24.79968], [120.97616, 24.7997], [120.97609, 24.79971], [120.97602, 24.79974], [120.97587, 24.79981], [120.97579, 24.7999], [120.97572, 24.80002], [120.97567, 24.80015], [120.97563, 24.80026], [120.9757, 24.80042], [120.97573, 24.80049], [120.97583, 24.80063], [120.97591, 24.80069], [120.97601, 24.80075], [120.97618, 24.80086], [120.97678, 24.80123], [120.97702, 24.80137], [120.97751, 24.80167], [120.97754, 24.80169], [120.97756, 24.80171], [120.97758, 24.80174], [120.97815, 24.80209], [120.97903, 24.80263], [120.97925, 24.80277], [120.97941, 24.80287], [120.97948, 24.80291], [120.97951, 24.80294], [120.97964, 24.80304], [120.97969, 24.80309], [120.97985, 24.80324], [120.97985, 24.80324], [120.97998, 24.80347], [120.97983, 24.80347], [120.97876, 24.80362], [120.97876, 24.80362], [120.97865, 24.80373], [120.97865, 24.80373], [120.97843, 24.804], [120.97822, 24.80428], [120.97821, 24.80429], [120.97811, 24.80443], [120.9781, 24.80444], [120.97789, 24.80473], [120.97778, 24.80488], [120.97772, 24.80496], [120.97767, 24.80503], [120.97755, 24.80519], [120.97747, 24.80531], [120.97747, 24.80531], [120.97738, 24.80536], [120.97736, 24.80537], [120.97725, 24.80542], [120.97714, 24.80548], [120.97714, 24.80548], [120.97706, 24.80554], [120.97618, 24.80499], [120.97523, 24.80439], [120.97506, 24.80426], [120.97485, 24.80411], [120.97483, 24.80409], [120.97482, 24.80408], [120.97481, 24.80407], [120.9748, 24.80406], [120.97477, 24.80402], [120.97458, 24.80389], [120.97389, 24.80345], [120.97349, 24.80319], [120.97214, 24.80233], [120.97214, 24.80233], [120.97349, 24.80319], [120.97389, 24.80345], [120.97458, 24.80389], [120.97477, 24.80402], [120.9748, 24.80403], [120.97484, 24.80404], [120.97486, 24.80405], [120.97489, 24.80406], [120.97495, 24.80411], [120.97496, 24.80412], [120.97502, 24.80416], [120.97511, 24.80421], [120.97533, 24.80434], [120.97573, 24.8046], [120.97606, 24.8048], [120.97606, 24.8048], [120.97619, 24.80488], [120.97656, 24.80509], [120.97714, 24.80548], [120.97787, 24.80593], [120.97816, 24.8061], [120.9784, 24.80626], [120.9785, 24.80634], [120.9795, 24.80697], [120.97966, 24.80706], [120.98012, 24.80733], [120.98061, 24.80761], [120.9813, 24.80807], [120.98157, 24.80826], [120.98175, 24.80837], [120.98214, 24.80861], [120.98258, 24.80889], [120.98303, 24.80918], [120.98326, 24.80933], [120.98328, 24.80934], [120.98328, 24.80934], [120.98343, 24.80943], [120.9835, 24.80947], [120.98365, 24.80958], [120.98447, 24.81009], [120.98463, 24.81019], [120.98478, 24.81028], [120.98498, 24.8104], [120.98529, 24.81053], [120.98576, 24.8107], [120.9862, 24.81082], [120.98648, 24.81093], [120.98667, 24.81098], [120.9868, 24.81101], [120.98699, 24.81109], [120.98732, 24.81122], [120.98742, 24.81127], [120.98765, 24.8114], [120.98808, 24.8117], [120.98854, 24.81203], [120.98866, 24.81211], [120.98881, 24.81221], [120.98896, 24.81233], [120.98917, 24.81247], [120.98919, 24.81249], [120.98927, 24.81256], [120.9896, 24.81279], [120.99015, 24.81318], [120.99027, 24.81326], [120.99032, 24.8133], [120.99069, 24.81357], [120.99099, 24.81376], [120.99111, 24.81384], [120.99145, 24.8141], [120.99183, 24.81436], [120.99217, 24.8146], [120.99228, 24.81468], [120.9924, 24.81476], [120.9926, 24.81491], [120.99272, 24.81501], [120.99283, 24.8151], [120.99289, 24.81515], [120.993, 24.81525], [120.99308, 24.81534], [120.99316, 24.81543], [120.9933, 24.81563], [120.99338, 24.81576], [120.9935, 24.81596], [120.99353, 24.81601], [120.99356, 24.81605], [120.99357, 24.81608], [120.99361, 24.81613], [120.99367, 24.81619], [120.99377, 24.81633], [120.99435, 24.81716], [120.99435, 24.81717], [120.99449, 24.81736], [120.99456, 24.81746], [120.99466, 24.81761], [120.99477, 24.8178], [120.99539, 24.8188], [120.99551, 24.81905], [120.99558, 24.81924], [120.99562, 24.81936], [120.99572, 24.81972], [120.99575, 24.81982], [120.9958, 24.81999], [120.99586, 24.82017], [120.99591, 24.82034], [120.99597, 24.82056], [120.99604, 24.8208], [120.9962, 24.8213], [120.99627, 24.82151], [120.99628, 24.82153], [120.99631, 24.82163], [120.99636, 24.8218], [120.99646, 24.82216], [120.99668, 24.82296], [120.99694, 24.82383], [120.99698, 24.82399], [120.99708, 24.82435], [120.99723, 24.82486], [120.99727, 24.82501], [120.99728, 24.82505], [120.99731, 24.82517], [120.99732, 24.82523], [120.99733, 24.8253], [120.99734, 24.82533], [120.99735, 24.82538], [120.9974, 24.82551], [120.9975, 24.82546], [120.99792, 24.82526], [120.99794, 24.82525], [120.9981, 24.82518], [120.99824, 24.82513], [120.99834, 24.82508], [120.99834, 24.82508], [120.99837, 24.82506], [120.99894, 24.82482], [120.99907, 24.82477], [120.99922, 24.8247], [120.99982, 24.82441], [121.00031, 24.82421], [121.00035, 24.8243], [121.00047, 24.82452], [121.00049, 24.82456], [121.00078, 24.82518], [121.00086, 24.82535], [121.00104, 24.82526], [121.00121, 24.82518], [121.00165, 24.82497], [121.00188, 24.82484], [121.00204, 24.82476], [121.00204, 24.82476], [121.00208, 24.82474], [121.00214, 24.82471], [121.00214, 24.82471], [121.00227, 24.82464], [121.00292, 24.82431], [121.00347, 24.82404], [121.00357, 24.82398], [121.0038, 24.82385], [121.0038, 24.82385], [121.00384, 24.82391], [121.00391, 24.82401], [121.00433, 24.82462], [121.00436, 24.82466], [121.00445, 24.82481], [121.00451, 24.82492], [121.00457, 24.82501], [121.0046, 24.8251], [121.00463, 24.82516], [121.00465, 24.82521], [121.00466, 24.82525], [121.00467, 24.82529], [121.00465, 24.82533], [121.00465, 24.82533], [121.00466, 24.82534], [121.00468, 24.82535], [121.00469, 24.82536], [121.0047, 24.82538], [121.00472, 24.8254], [121.00473, 24.82543], [121.00487, 24.82572], [121.00506, 24.82611], [121.00506, 24.82611], [121.00515, 24.82617], [121.0054, 24.82665], [121.00549, 24.82681], [121.00549, 24.82681], [121.00559, 24.827], [121.00579, 24.82738], [121.00603, 24.82785], [121.00631, 24.82828], [121.00648, 24.8286], [121.00659, 24.82879], [121.007, 24.82851], [121.00781, 24.82794], [121.00835, 24.82765], [121.0088, 24.82741], [121.0088, 24.82741], [121.00912, 24.82725], [121.00923, 24.82719], [121.00937, 24.82712], [121.0097, 24.82696], [121.01063, 24.82651], [121.01116, 24.82629], [121.01144, 24.82615], [121.01151, 24.82612], [121.0117, 24.82602], [121.0117, 24.82602], [121.01183, 24.82596], [121.01223, 24.82575], [121.01213, 24.82557], [121.01195, 24.82525], [121.01186, 24.82509], [121.01138, 24.82424], [121.01105, 24.82369], [121.01075, 24.82317], [121.01068, 24.82305], [121.01049, 24.82276], [121.01046, 24.82269], [121.011, 24.8224], [121.01175, 24.82195], [121.0122, 24.82178], [121.01318, 24.82141], [121.01328, 24.82137], [121.01337, 24.82134], [121.0138, 24.82116], [121.0138, 24.82116], [121.0141, 24.82104], [121.01478, 24.82077], [121.01493, 24.82076], [121.01511, 24.82069], [121.0153, 24.82062], [121.01562, 24.8205], [121.01569, 24.82048], [121.01574, 24.82042], [121.01645, 24.82013], [121.01669, 24.82004], [121.01714, 24.81986], [121.01766, 24.81967], [121.01801, 24.81955], [121.01818, 24.8195], [121.01818, 24.8195], [121.01839, 24.81944], [121.01875, 24.81937], [121.01935, 24.81931], [121.01967, 24.81928], [121.02007, 24.81926], [121.02034, 24.81924], [121.02038, 24.81924], [121.02053, 24.81923], [121.02054, 24.81923], [121.02079, 24.8192], [121.02105, 24.81915], [121.02131, 24.81908], [121.02131, 24.81908], [121.02113, 24.81874], [121.02087, 24.81819], [121.0208, 24.81803], [121.02058, 24.81753], [121.0205, 24.81737], [121.02042, 24.81721], [121.02026, 24.81688], [121.02001, 24.81636], [121.01989, 24.8161], [121.0198, 24.81588], [121.01943, 24.81521], [121.01943, 24.81521], [121.01939, 24.81513], [121.01948, 24.81508], [121.02044, 24.81457], [121.02051, 24.81454], [121.02051, 24.81454], [121.02052, 24.81454], [121.02061, 24.81449], [121.02113, 24.81422], [121.0212, 24.81418], [121.02245, 24.81355], [121.02271, 24.81343], [121.02315, 24.81322], [121.02327, 24.81317], [121.02365, 24.81297], [121.02383, 24.81288], [121.02383, 24.81288], [121.02394, 24.81283], [121.0245, 24.81254], [121.02491, 24.81232], [121.02543, 24.81205], [121.02597, 24.81176], [121.02736, 24.81102], [121.02745, 24.81097], [121.02903, 24.81021], [121.02911, 24.81016], [121.03029, 24.80957], [121.03079, 24.80931], [121.03136, 24.80904], [121.03196, 24.80874], [121.03196, 24.80874], [121.03257, 24.80844], [121.03257, 24.80844], [121.03268, 24.80839], [121.03399, 24.80796], [121.03504, 24.80752], [121.03504, 24.80752], [121.03521, 24.80745], [121.03529, 24.80755], [121.03582, 24.8087], [121.03587, 24.80879], [121.03659, 24.81007], [121.03663, 24.81014], [121.03711, 24.81111], [121.03727, 24.81138], [121.03727, 24.81138], [121.03732, 24.81146], [121.03803, 24.81116], [121.03872, 24.81088], [121.03902, 24.81077], [121.03975, 24.81052], [121.03986, 24.81049], [121.03993, 24.81047], [121.0405, 24.81029], [121.04151, 24.81005], [121.04161, 24.81004], [121.04173, 24.81001], [121.04173, 24.81001], [121.04171, 24.80991], [121.04168, 24.8098], [121.04165, 24.80968], [121.04143, 24.80881], [121.04141, 24.80873], [121.04141, 24.80873], [121.04136, 24.80873], [121.04134, 24.80872], [121.04132, 24.8087], [121.0413, 24.80868], [121.04127, 24.80865], [121.04123, 24.80861], [121.04117, 24.80855], [121.04061, 24.80794], [121.0405, 24.80781], [121.04049, 24.80779], [121.04048, 24.80778], [121.04048, 24.80777], [121.04047, 24.80776], [121.04039, 24.80765], [121.04036, 24.8075], [121.04037, 24.80746], [121.0404, 24.80742], [121.04058, 24.80727], [121.04058, 24.80727], [121.04095, 24.80695], [121.04066, 24.80597], [121.04066, 24.80596], [121.04065, 24.80592], [121.04032, 24.80598], [121.04024, 24.80599], [121.04004, 24.80603], [121.03992, 24.80606], [121.03989, 24.80607], [121.0395, 24.80618], [121.03947, 24.80618], [121.03931, 24.80621], [121.0391, 24.80626], [121.03874, 24.80635], [121.03864, 24.80637], [121.03853, 24.80641], [121.03802, 24.80656], [121.03718, 24.80681], [121.03708, 24.80685], [121.03614, 24.80721], [121.03588, 24.80731], [121.03529, 24.80755], [121.03544, 24.80787], [121.03544, 24.80787], [121.03582, 24.8087], [121.03587, 24.80879], [121.03659, 24.81007], [121.03663, 24.81014], [121.03711, 24.81111], [121.03727, 24.81138], [121.03732, 24.81146], [121.03742, 24.81163], [121.03747, 24.81174], [121.03762, 24.81201], [121.03798, 24.81268], [121.03798, 24.81268], [121.03805, 24.8128], [121.03833, 24.81327], [121.03846, 24.8135], [121.03856, 24.81372], [121.03859, 24.81378], [121.03852, 24.81381], [121.03722, 24.81428], [121.03671, 24.81446], [121.03663, 24.81448], [121.03533, 24.81495], [121.03533, 24.81495], [121.03528, 24.81496], [121.03511, 24.81504], [121.03491, 24.81515], [121.03479, 24.81523], [121.0347, 24.8153], [121.03451, 24.81547], [121.0338, 24.81604], [121.03306, 24.81664], [121.03282, 24.81684], [121.03264, 24.81701], [121.03251, 24.81713], [121.03242, 24.81723], [121.0324, 24.81725], [121.03233, 24.81733], [121.03228, 24.8174], [121.03215, 24.8176], [121.03205, 24.81776], [121.03195, 24.81791], [121.03184, 24.81801], [121.03177, 24.81811], [121.03163, 24.81829], [121.03156, 24.81839], [121.03152, 24.81843], [121.03143, 24.81853], [121.03123, 24.8187], [121.03107, 24.81885], [121.03079, 24.81906], [121.03079, 24.81906], [121.03021, 24.81951], [121.03061, 24.81991], [121.03074, 24.82003], [121.0309, 24.82018], [121.03098, 24.82026], [121.03135, 24.82064], [121.03137, 24.82067], [121.0315, 24.82081], [121.03155, 24.82087], [121.03183, 24.82118], [121.03183, 24.82118], [121.03215, 24.82155], [121.03226, 24.82167], [121.03233, 24.82174], [121.03265, 24.82218], [121.03275, 24.82234], [121.03298, 24.82271], [121.03311, 24.82299], [121.03343, 24.82364], [121.03296, 24.82407], [121.03236, 24.82465], [121.03223, 24.8248], [121.03171, 24.82417]]}}, {"type": "Feature", "properties": {"類型": "站點", "RouteUID": "HSQ0805", "路線名稱": "快捷9號", "SubRouteUID": "HSQ080501", "方向代碼": 0, "方向": "去程", "站序": 1, "StopUID": "HSQ310543", "站名": "勝利八街總站", "站名_英文": "Shengli 8th Street Terminus"}, "geometry": {"type": "Point", "coordinates": [121.03161, 24.82424]}}, {"type": "Feature", "properties": {"類型": "站點", "RouteUID": "HSQ0805", "路線名稱": "快捷9號", "SubRouteUID": "HSQ080501", "方向代碼": 0, "方向": "去程", "站序": 2, "StopUID": "HSQ310544", "站名": "六家高中", "站名_英文": "Liou Jia Senior High School"}, "geometry": {"type": "Point", "coordinates": [121.03138, 24.82073]}}, {"type": "Feature", "properties": {"類型": "站點", "RouteUID": "HSQ0805", "路線名稱": "快捷9號", "SubRouteUID": "HSQ080501", "方向代碼": 0, "方向": "去程", "站序": 3, "StopUID": "HSQ310546", "站名": "交叉口", "站名_英文": "Intersection"}, "geometry": {"type": "Point", "coordinates": [121.0305, 24.81923]}}, {"type": "Feature", "properties": {"類型": "站點", "RouteUID": "HSQ0805", "路線名稱": "快捷9號", "SubRouteUID": "HSQ080501", "方向代碼": 0, "方向": "去程", "站序": 4, "StopUID": "HSQ310548", "站名": "十興", "站名_英文": "Shi-Hsing"}, "geometry": {"type": "Point", "coordinates": [121.0354, 24.8148]}}, {"type": "Feature", "properties": {"類型": "站點", "RouteUID": "HSQ0805", "路線名稱": "快捷9號", "SubRouteUID": "HSQ080501", "方向代碼": 0, "方向": "去程", "站序": 5, "StopUID": "HSQ310550", "站名": "世興棒球場", "站名_英文": "Shihsing Baseball Stadium"}, "geometry": {"type": "Point", "coordinates": [121.03782, 24.81265]}}, {"type": "Feature", "properties": {"類型": "站點", "RouteUID": "HSQ0805", "路線名稱": "快捷9號", "SubRouteUID": "HSQ080501", "方向代碼": 0, "方向": "去程", "站序": 6, "StopUID": "HSQ310643", "站名": "高鐵新竹站", "站名_英文": "HSR Hsinchu Station"}, "geometry": {"type": "Point", "coordinates": [121.04049, 24.80718]}}, {"type": "Feature", "properties": {"類型": "站點", "RouteUID": "HSQ0805", "路線名稱": "快捷9號", "SubRouteUID": "HSQ080501", "方向代碼": 0, "方向": "去程", "站序": 7, "StopUID": "HSQ310554", "站名": "哈洛德站", "站名_英文": "Harrods Station"}, "geometry": {"type": "Point", "coordinates": [121.03477, 24.80779]}}, {"type": "Feature", "properties": {"類型": "站點", "RouteUID": "HSQ0805", "路線名稱": "快捷9號", "SubRouteUID": "HSQ080501", "方向代碼": 0, "方向": "去程", "站序": 8, "StopUID": "HSQ310555", "站名": "文興嘉豐南路口", "站名_英文": "Wenxing Jiafeng South Road"}, "geometry": {"type": "Point", "coordinates": [121.03207, 24.80886]}}, {"type": "Feature", "properties": {"類型": "站點", "RouteUID": "HSQ0805", "路線名稱": "快捷9號", "SubRouteUID": "HSQ080501", "方向代碼": 0, "方向": "去程", "站序": 9, "StopUID": "HSQ310557", "站名": "文興嘉興路口", "站名_英文": "Wenxing Jiaxing Road"}, "geometry": {"type": "Point", "coordinates": [121.02483, 24.81256]}}, {"type": "Feature", "properties": {"類型": "站點", "RouteUID": "HSQ0805", "路線名稱": "快捷9號", "SubRouteUID": "HSQ080501", "方向代碼": 0, "方向": "去程", "站序": 10, "StopUID": "HSQ310559", "站名": "水利大樓", "站名_英文": "Water Conservancy Building"}, "geometry": {"type": "Point", "coordinates": [121.02138, 24.81422]}}, {"type": "Feature", "properties": {"類型": "站點", "RouteUID": "HSQ0805", "路線名稱": "快捷9號", "SubRouteUID": "HSQ080501", "方向代碼": 0, "方向": "去程", "站序": 11, "StopUID": "HSQ310560", "站名": "縣立總圖書館", "站名_英文": "Hsinchu County Library"}, "geometry": {"type": "Point", "coordinates": [121.01974, 24.81547]}}, {"type": "Feature", "properties": {"類型": "站點", "RouteUID": "HSQ0805", "路線名稱": "快捷9號", "SubRouteUID": "HSQ080501", "方向代碼": 0, "方向": "去程", "站序": 12, "StopUID": "HSQ310562", "站名": "縣體育場", "站名_英文": "Hsinchu County Stadium"}, "geometry": {"type": "Point", "coordinates": [121.01831, 24.81961]}}, {"type": "Feature", "properties": {"類型": "站點", "RouteUID": "HSQ0805", "路線名稱": "快捷9號", "SubRouteUID": "HSQ080501", "方向代碼": 0, "方向": "去程", "站序": 13, "StopUID": "HSQ310564", "站名": "泉州厝", "站名_英文": "Quanzhou House"}, "geometry": {"type": "Point", "coordinates": [121.01392, 24.82125]}}, {"type": "Feature", "properties": {"類型": "站點", "RouteUID": "HSQ0805", "路線名稱": "快捷9號", "SubRouteUID": "HSQ080501", "方向代碼": 0, "方向": "去程", "站序": 14, "StopUID": "HSQ310566", "站名": "縣政府站", "站名_英文": "Hsinchu County Government Station"}, "geometry": {"type": "Point", "coordinates": [121.0114, 24.8243]}}, {"type": "Feature", "properties": {"類型": "站點", "RouteUID": "HSQ0805", "路線名稱": "快捷9號", "SubRouteUID": "HSQ080501", "方向代碼": 0, "方向": "去程", "站序": 15, "StopUID": "HSQ310568", "站名": "家樂福", "站名_英文": "Carrefour"}, "geometry": {"type": "Point", "coordinates": [121.00917, 24.82745]}}, {"type": "Feature", "properties": {"類型": "站點", "RouteUID": "HSQ0805", "路線名稱": "快捷9號", "SubRouteUID": "HSQ080501", "方向代碼": 0, "方向": "去程", "站序": 16, "StopUID": "HSQ310570", "站名": "深耕公園", "站名_英文": "Deeply cultivate the park"}, "geometry": {"type": "Point", "coordinates": [121.00546, 24.82682]}}, {"type": "Feature", "properties": {"類型": "站點", "RouteUID": "HSQ0805", "路線名稱": "快捷9號", "SubRouteUID": "HSQ080501", "方向代碼": 0, "方向": "去程", "站序": 17, "StopUID": "HSQ310572", "站名": "中醫大", "站名_英文": "China Medical University Hsinchu Hospital"}, "geometry": {"type": "Point", "coordinates": [121.0019, 24.82499]}}, {"type": "Feature", "properties": {"類型": "站點", "RouteUID": "HSQ0805", "路線名稱": "快捷9號", "SubRouteUID": "HSQ080501", "方向代碼": 0, "方向": "去程", "站序": 18, "StopUID": "HSQ310574", "站名": "大河戀", "站名_英文": "A River Runs Through It"}, "geometry": {"type": "Point", "coordinates": [120.99883, 24.82502]}}, {"type": "Feature", "properties": {"類型": "站點", "RouteUID": "HSQ0805", "路線名稱": "快捷9號", "SubRouteUID": "HSQ080501", "方向代碼": 0, "方向": "去程", "站序": 19, "StopUID": "HSQ310576", "站名": "新竹高工", "站名_英文": "Hsinchu Industrial High School"}, "geometry": {"type": "Point", "coordinates": [120.98271, 24.80917]}}, {"type": "Feature", "properties": {"類型": "站點", "RouteUID": "HSQ0805", "路線名稱": "快捷9號", "SubRouteUID": "HSQ080501", "方向代碼": 0, "方向": "去程", "站序": 20, "StopUID": "HSQ310578", "站名": "新竹女中", "站名_英文": "Hsinchu Girls' Senior High School"}, "geometry": {"type": "Point", "coordinates": [120.97624, 24.80509]}}, {"type": "Feature", "properties": {"類型": "站點", "RouteUID": "HSQ0805", "路線名稱": "快捷9號", "SubRouteUID": "HSQ080501", "方向代碼": 0, "方向": "去程", "站序": 21, "StopUID": "HSQ310580", "站名": "新竹火車站", "站名_英文": "Hsinchu Railway Station"}, "geometry": {"type": "Point", "coordinates": [120.97265, 24.80278]}}, {"type": "Feature", "properties": {"類型": "站點", "RouteUID": "HSQ0805", "路線名稱": "快捷9號", "SubRouteUID": "HSQ080501", "方向代碼": 0, "方向": "去程", "站序": 22, "StopUID": "HSQ311502", "站名": "學園商場", "站名_英文": "Xue Yuan Market"}, "geometry": {"type": "Point", "coordinates": [120.9777, 24.79864]}}, {"type": "Feature", "properties": {"類型": "站點", "RouteUID": "HSQ0805", "路線名稱": "快捷9號", "SubRouteUID": "HSQ080501", "方向代碼": 0, "方向": "去程", "站序": 23, "StopUID": "HSQ291243", "站名": "新竹高中", "站名_英文": "National Hsinchu Senior High School"}, "geometry": {"type": "Point", "coordinates": [120.981185, 24.7956153]}}, {"type": "Feature", "properties": {"類型": "站點", "RouteUID": "HSQ0805", "路線名稱": "快捷9號", "SubRouteUID": "HSQ080501", "方向代碼": 0, "方向": "去程", "站序": 24, "StopUID": "HSQ310583", "站名": "新竹高商", "站名_英文": "Hsinchu Commercial & Vocational High School"}, "geometry": {"type": "Point", "coordinates": [120.98453, 24.79685]}}, {"type": "Feature", "properties": {"類型": "站點", "RouteUID": "HSQ0805", "路線名稱": "快捷9號", "SubRouteUID": "HSQ080501", "方向代碼": 0, "方向": "去程", "站序": 25, "StopUID": "HSQ311503", "站名": "陽明交大(博愛校區)", "站名_英文": "NYCU(Boai Cam-pus)"}, "geometry": {"type": "Point", "coordinates": [120.98339, 24.79839]}}, {"type": "Feature", "properties": {"類型": "站點", "RouteUID": "HSQ0805", "路線名稱": "快捷9號", "SubRouteUID": "HSQ080502", "方向代碼": 1, "方向": "返程", "站序": 1, "StopUID": "HSQ311504", "站名": "陽明交大(博愛校區)", "站名_英文": "NYCU(Boai Cam-pus)"}, "geometry": {"type": "Point", "coordinates": [120.98339, 24.79839]}}, {"type": "Feature", "properties": {"類型": "站點", "RouteUID": "HSQ0805", "路線名稱": "快捷9號", "SubRouteUID": "HSQ080502", "方向代碼": 1, "方向": "返程", "站序": 2, "StopUID": "HSQ310584", "站名": "新竹高商", "站名_英文": "Hsinchu Commercial & Vocational High School"}, "geometry": {"type": "Point", "coordinates": [120.98408, 24.79682]}}, {"type": "Feature", "properties": {"類型": "站點", "RouteUID": "HSQ0805", "路線名稱": "快捷9號", "SubRouteUID": "HSQ080502", "方向代碼": 1, "方向": "返程", "站序": 3, "StopUID": "HSQ310585", "站名": "新竹高中", "站名_英文": "Hsinchu Railway Station"}, "geometry": {"type": "Point", "coordinates": [120.98098, 24.79569]}}, {"type": "Feature", "properties": {"類型": "站點", "RouteUID": "HSQ0805", "路線名稱": "快捷9號", "SubRouteUID": "HSQ080502", "方向代碼": 1, "方向": "返程", "站序": 4, "StopUID": "HSQ291850", "站名": "學園商場", "站名_英文": "Xue Yuan Market"}, "geometry": {"type": "Point", "coordinates": [120.97798, 24.79864]}}, {"type": "Feature", "properties": {"類型": "站點", "RouteUID": "HSQ0805", "路線名稱": "快捷9號", "SubRouteUID": "HSQ080502", "方向代碼": 1, "方向": "返程", "站序": 5, "StopUID": "HSQ310581", "站名": "新竹火車站", "站名_英文": "Hsinchu Railway Station"}, "geometry": {"type": "Point", "coordinates": [120.97242, 24.8024]}}, {"type": "Feature", "properties": {"類型": "站點", "RouteUID": "HSQ0805", "路線名稱": "快捷9號", "SubRouteUID": "HSQ080502", "方向代碼": 1, "方向": "返程", "站序": 6, "StopUID": "HSQ310579", "站名": "新竹女中", "站名_英文": "Hsinchu Girls' Senior High School"}, "geometry": {"type": "Point", "coordinates": [120.97608, 24.80478]}}, {"type": "Feature", "properties": {"類型": "站點", "RouteUID": "HSQ0805", "路線名稱": "快捷9號", "SubRouteUID": "HSQ080502", "方向代碼": 1, "方向": "返程", "站序": 7, "StopUID": "HSQ310577", "站名": "新竹高工", "站名_英文": "Hsinchu Industrial High School"}, "geometry": {"type": "Point", "coordinates": [120.98332, 24.80928]}}, {"type": "Feature", "properties": {"類型": "站點", "RouteUID": "HSQ0805", "路線名稱": "快捷9號", "SubRouteUID": "HSQ080502", "方向代碼": 1, "方向": "返程", "站序": 8, "StopUID": "HSQ310575", "站名": "大河戀", "站名_英文": "A River Runs Through It"}, "geometry": {"type": "Point", "coordinates": [120.99832, 24.82505]}}, {"type": "Feature", "properties": {"類型": "站點", "RouteUID": "HSQ0805", "路線名稱": "快捷9號", "SubRouteUID": "HSQ080502", "方向代碼": 1, "方向": "返程", "站序": 9, "StopUID": "HSQ303570", "站名": "中醫大", "站名_英文": "China medical university hsinchu hospital"}, "geometry": {"type": "Point", "coordinates": [121.002019, 24.82473189]}}, {"type": "Feature", "properties": {"類型": "站點", "RouteUID": "HSQ0805", "路線名稱": "快捷9號", "SubRouteUID": "HSQ080502", "方向代碼": 1, "方向": "返程", "站序": 10, "StopUID": "HSQ310571", "站名": "深耕公園", "站名_英文": "Deeply cultivate the park"}, "geometry": {"type": "Point", "coordinates": [121.00551, 24.8268]}}, {"type": "Feature", "properties": {"類型": "站點", "RouteUID": "HSQ0805", "路線名稱": "快捷9號", "SubRouteUID": "HSQ080502", "方向代碼": 1, "方向": "返程", "站序": 11, "StopUID": "HSQ310569", "站名": "家樂福", "站名_英文": "Carrefour"}, "geometry": {"type": "Point", "coordinates": [121.00878, 24.82738]}}, {"type": "Feature", "properties": {"類型": "站點", "RouteUID": "HSQ0805", "路線名稱": "快捷9號", "SubRouteUID": "HSQ080502", "方向代碼": 1, "方向": "返程", "站序": 12, "StopUID": "HSQ310567", "站名": "縣政府站", "站名_英文": "Hsinchu County Government Station"}, "geometry": {"type": "Point", "coordinates": [121.01168, 24.82599]}}, {"type": "Feature", "properties": {"類型": "站點", "RouteUID": "HSQ0805", "路線名稱": "快捷9號", "SubRouteUID": "HSQ080502", "方向代碼": 1, "方向": "返程", "站序": 13, "StopUID": "HSQ310565", "站名": "泉州厝", "站名_英文": "Quanzhou House"}, "geometry": {"type": "Point", "coordinates": [121.01378, 24.82112]}}, {"type": "Feature", "properties": {"類型": "站點", "RouteUID": "HSQ0805", "路線名稱": "快捷9號", "SubRouteUID": "HSQ080502", "方向代碼": 1, "方向": "返程", "站序": 14, "StopUID": "HSQ310563", "站名": "縣體育場", "站名_英文": "Hsinchu County Stadium"}, "geometry": {"type": "Point", "coordinates": [121.01816, 24.81943]}}, {"type": "Feature", "properties": {"類型": "站點", "RouteUID": "HSQ0805", "路線名稱": "快捷9號", "SubRouteUID": "HSQ080502", "方向代碼": 1, "方向": "返程", "站序": 15, "StopUID": "HSQ310561", "站名": "縣立總圖書館", "站名_英文": "Hsinchu County Library"}, "geometry": {"type": "Point", "coordinates": [121.02049, 24.81451]}}, {"type": "Feature", "properties": {"類型": "站點", "RouteUID": "HSQ0805", "路線名稱": "快捷9號", "SubRouteUID": "HSQ080502", "方向代碼": 1, "方向": "返程", "站序": 16, "StopUID": "HSQ310558", "站名": "文興嘉興路口", "站名_英文": "Wenxing Jiaxing Road"}, "geometry": {"type": "Point", "coordinates": [121.02381, 24.81285]}}, {"type": "Feature", "properties": {"類型": "站點", "RouteUID": "HSQ0805", "路線名稱": "快捷9號", "SubRouteUID": "HSQ080502", "方向代碼": 1, "方向": "返程", "站序": 17, "StopUID": "HSQ310556", "站名": "文興嘉豐南路口", "站名_英文": "Wenxing Jiafeng South Road"}, "geometry": {"type": "Point", "coordinates": [121.03193, 24.80869]}}, {"type": "Feature", "properties": {"類型": "站點", "RouteUID": "HSQ0805", "路線名稱": "快捷9號", "SubRouteUID": "HSQ080502", "方向代碼": 1, "方向": "返程", "站序": 18, "StopUID": "HSQ310643", "站名": "高鐵新竹站", "站名_英文": "HSR Hsinchu Station"}, "geometry": {"type": "Point", "coordinates": [121.04049, 24.80718]}}, {"type": "Feature", "properties": {"類型": "站點", "RouteUID": "HSQ0805", "路線名稱": "快捷9號", "SubRouteUID": "HSQ080502", "方向代碼": 1, "方向": "返程", "站序": 19, "StopUID": "HSQ310553", "站名": "哈洛德(嘉豐十一路)", "站名_英文": "Harrods (Jiafeng 11th Road)"}, "geometry": {"type": "Point", "coordinates": [121.03545, 24.80786]}}, {"type": "Feature", "properties": {"類型": "站點", "RouteUID": "HSQ0805", "路線名稱": "快捷9號", "SubRouteUID": "HSQ080502", "方向代碼": 1, "方向": "返程", "站序": 20, "StopUID": "HSQ310551", "站名": "世興棒球場", "站名_英文": "Shihsing Baseball Stadium"}, "geometry": {"type": "Point", "coordinates": [121.038, 24.81267]}}, {"type": "Feature", "properties": {"類型": "站點", "RouteUID": "HSQ0805", "路線名稱": "快捷9號", "SubRouteUID": "HSQ080502", "方向代碼": 1, "方向": "返程", "站序": 21, "StopUID": "HSQ310549", "站名": "十興", "站名_英文": "Shi-Hsing"}, "geometry": {"type": "Point", "coordinates": [121.03535, 24.815]}}, {"type": "Feature", "properties": {"類型": "站點", "RouteUID": "HSQ0805", "路線名稱": "快捷9號", "SubRouteUID": "HSQ080502", "方向代碼": 1, "方向": "返程", "站序": 22, "StopUID": "HSQ310547", "站名": "交叉口", "站名_英文": "Intersection"}, "geometry": {"type": "Point", "coordinates": [121.03082, 24.81909]}}, {"type": "Feature", "properties": {"類型": "站點", "RouteUID": "HSQ0805", "路線名稱": "快捷9號", "SubRouteUID": "HSQ080502", "方向代碼": 1, "方向": "返程", "站序": 23, "StopUID": "HSQ310545", "站名": "六家高中", "站名_英文": "Liou Jia Senior High School"}, "geometry": {"type": "Point", "coordinates": [121.03185, 24.82117]}}, {"type": "Feature", "properties": {"類型": "站點", "RouteUID": "HSQ0805", "路線名稱": "快捷9號", "SubRouteUID": "HSQ080502", "方向代碼": 1, "方向": "返程", "站序": 24, "StopUID": "HSQ310543", "站名": "勝利八街總站", "站名_英文": "Shengli 8th Street Terminus"}, "geometry": {"type": "Point", "coordinates": [121.03161, 24.82424]}}]}